NORAD_CAT_ID,OBJECT_NAME,OBJECT_TYPE,EPOCH,MEAN_MOTION,ECCENTRICITY,INCLINATION,RA_OF_ASC_NODE,ARG_OF_PERICENTER,MEAN_ANOMALY,BSTAR,MEAN_MOTION_DOT,MEAN_MOTION_DDOT,TLE_LINE0,TLE_LINE1,TLE_LINE2,SEMIMAJOR_AXIS,PERIOD,APOGEE,PERIGEE,DECAYED
53153.0,STARLINK-4098,PAYLOAD,2024-05-10 13:36:45,15.08835316,0.0001468,53.2172,283.4371,96.1808,263.9352,3.4209e-05,2.56e-06,0.0,0 STARLINK-4098,1 53153U 22083X   24131.56719013  .00000256  00000-0  34209-4 0  9990,2 53153  53.2172 283.4371 0001468  96.1808 263.9352 15.08835316100492,6917.895,95.438,540.775,538.744,0.0
53153.0,STARLINK-4098,PAYLOAD,2024-05-10 16:47:31,15.08841029,0.0001368,53.2181,282.8438,81.7215,278.3932,4.0788e-05,3.61e-06,0.0,0 STARLINK-4098,1 53153U 22083X   24131.69966745  .00000361  00000-0  40788-4 0  9996,2 53153  53.2181 282.8438 0001368  81.7215 278.3932 15.08841029100515,6917.877,95.437,540.689,538.796,0.0
53153.0,STARLINK-4098,PAYLOAD,2024-05-11 13:27:25,15.0892076,0.0001432,53.2176,278.9759,96.3478,263.7678,0.00066063,0.00010265,0.0,0 STARLINK-4098,1 53153U 22083X   24132.56071033  .00010265  00000-0  66063-3 0  9997,2 53153  53.2176 278.9759 0001432  96.3478 263.7678 15.08920760101275,6917.634,95.432,540.489,538.508,0.0
53153.0,STARLINK-4098,PAYLOAD,2024-05-11 19:49:00,15.08882528,0.0001594,53.218,277.7887,91.1501,268.9674,0.00041476,6.327e-05,0.0,0 STARLINK-4098,1 53153U 22083X   24132.82570229  .00006327  00000-0  41476-3 0  9992,2 53153  53.2180 277.7887 0001594  91.1501 268.9674 15.08882528101315,6917.75,95.435,540.718,538.513,0.0
53153.0,STARLINK-4098,PAYLOAD,2024-05-12 02:10:38,15.08778865,0.0002209,53.2166,276.5971,77.1613,282.9626,-0.00099827,-0.00016115,0.0,0 STARLINK-4098,1 53153U 22083X   24133.09072100 -.00016115  00000-0 -99827-3 0  9998,2 53153  53.2166 276.5971 0002209  77.1613 282.9626 15.08778865101357,6918.067,95.441,541.46,538.404,0.0
53153.0,STARLINK-4098,PAYLOAD,2024-05-12 13:18:22,15.08754815,0.0001493,53.217,274.5176,92.8287,267.2876,-0.0012417,-0.00019949,0.0,0 STARLINK-4098,1 53153U 22083X   24133.55442993 -.00019949  00000-0 -12417-2 0  9997,2 53153  53.2170 274.5176 0001493  92.8287 267.2876 15.08754815101422,6918.141,95.443,541.039,538.973,0.0
53153.0,STARLINK-4098,PAYLOAD,2024-05-12 14:53:46,15.08748508,0.000155,53.2182,274.2185,93.2785,266.8385,-0.0012286,-0.00019739,0.0,0 STARLINK-4098,1 53153U 22083X   24133.62067623 -.00019739  00000-0 -12286-2 0  9999,2 53153  53.2182 274.2185 0001550  93.2785 266.8385 15.08748508100807,6918.16,95.443,541.097,538.953,0.0
53153.0,STARLINK-4098,PAYLOAD,2024-05-12 16:29:09,15.08747374,0.0001392,53.2175,273.9221,73.6967,286.4178,-0.001187,-0.00019081,0.0,0 STARLINK-4098,1 53153U 22083X   24133.68692044 -.00019081  00000-0 -11870-2 0  9994,2 53153  53.2175 273.9221 0001392  73.6967 286.4178 15.08747374100813,6918.164,95.443,540.992,539.066,0.0
53153.0,STARLINK-4098,PAYLOAD,2024-05-13 02:01:27,15.08790083,0.0001177,53.2177,272.1381,67.6778,292.4338,-0.00046468,-7.665e-05,0.0,0 STARLINK-4098,1 53153U 22083X   24134.08435145 -.00007665  00000-0 -46468-3 0  9993,2 53153  53.2177 272.1381 0001177  67.6778 292.4338 15.08790083101504,6918.033,95.441,540.712,539.084,0.0
53153.0,STARLINK-4098,PAYLOAD,2024-05-13 09:58:21,15.08853773,0.0001513,53.2167,270.651,61.1896,298.9247,-0.00022492,-3.867e-05,0.0,0 STARLINK-4098,1 53153U 22083X   24134.41552610 -.00003867  00000-0 -22492-3 0  9998,2 53153  53.2167 270.6510 0001513  61.1896 298.9247 15.08853773101555,6917.838,95.437,540.75,538.657,0.0
53153.0,STARLINK-4098,PAYLOAD,2024-05-13 17:55:17,15.08858201,0.0001708,53.218,269.1663,74.1089,286.0092,8.8949e-05,1.128e-05,0.0,0 STARLINK-4098,1 53153U 22083X   24134.74672549  .00001128  00000-0  88949-4 0  9994,2 53153  53.2180 269.1663 0001708  74.1089 286.0092 15.08858201100978,6917.825,95.436,540.871,538.508,0.0
53153.0,STARLINK-4098,PAYLOAD,2024-05-15 01:42:59,15.08863158,0.0001769,53.2174,263.218,64.0576,296.0598,0.00091134,0.00014255,0.0,0 STARLINK-4098,1 53153U 22083X   24136.07152469  .00014255  00000-0  91134-3 0  9990,2 53153  53.2174 263.2180 0001769  64.0576 296.0598 15.08863158101808,6917.81,95.436,540.898,538.451,0.0
53153.0,STARLINK-4098,PAYLOAD,2024-05-15 12:50:41,15.08853261,0.000198,53.2158,261.1351,66.6998,293.4202,-6.1319e-05,-1.264e-05,0.0,0 STARLINK-4098,1 53153U 22083X   24136.53520623 -.00001264  00000-0 -61319-4 0  9993,2 53153  53.2158 261.1351 0001980  66.6998 293.4202 15.08853261101872,6917.84,95.437,541.075,538.335,0.0
53153.0,STARLINK-4098,PAYLOAD,2024-05-15 14:26:03,15.08863686,0.0001374,53.2216,260.8376,65.4884,294.6252,-9.9424e-05,-1.871e-05,0.0,0 STARLINK-4098,1 53153U 22083X   24136.60143398 -.00001871  00000-0 -99424-4 0  9993,2 53153  53.2216 260.8376 0001374  65.4884 294.6252 15.08863686101250,6917.808,95.436,540.623,538.722,0.0
53153.0,STARLINK-4098,PAYLOAD,2024-05-15 16:01:27,15.08868213,0.0001801,53.2187,260.5402,58.128,301.9887,-3.6829e-05,-8.75e-06,0.0,0 STARLINK-4098,1 53153U 22083X   24136.66767951 -.00000875  00000-0 -36829-4 0  9999,2 53153  53.2187 260.5402 0001801  58.1280 301.9887 15.08868213101895,6917.794,95.436,540.905,538.413,0.0
53153.0,STARLINK-4098,PAYLOAD,2024-05-16 01:33:43,15.0892782,7.75e-05,53.2181,258.7549,39.5321,320.5727,-0.0011579,-0.00018712,0.0,0 STARLINK-4098,1 53153U 22083X   24137.06508232 -.00018712  00000-0 -11579-2 0  9991,2 53153  53.2181 258.7549 0000775  39.5321 320.5727 15.08927820101955,6917.612,95.432,540.013,538.941,0.0
53153.0,STARLINK-4098,PAYLOAD,2024-05-16 07:55:18,15.08839139,0.0001645,53.2177,257.5695,72.4203,287.6968,0.00016267,2.302e-05,0.0,0 STARLINK-4098,1 53153U 22083X   24137.33006951  .00002302  00000-0  16267-3 0  9998,2 53153  53.2177 257.5695 0001645  72.4203 287.6968 15.08839139101990,6917.883,95.438,540.886,538.61,0.0
53153.0,STARLINK-4098,PAYLOAD,2024-05-16 14:16:49,15.08856545,0.0001855,53.2184,256.379,75.1296,284.9902,0.00026759,3.975e-05,0.0,0 STARLINK-4098,1 53153U 22083X   24137.59501673  .00003975  00000-0  26759-3 0  9991,2 53153  53.2184 256.3790 0001855  75.1296 284.9902 15.08856545101400,6917.83,95.437,540.978,538.412,0.0
53153.0,STARLINK-4098,PAYLOAD,2024-05-17 12:32:14,15.08844435,0.0001682,53.2178,252.2159,74.1206,285.9971,0.00012242,1.661e-05,0.0,0 STARLINK-4098,1 53153U 22083X   24138.52238566  .00001661  00000-0  12242-3 0  9995,2 53153  53.2178 252.2159 0001682  74.1206 285.9971 15.08844435102172,6917.867,95.437,540.895,538.568,0.0
53153.0,STARLINK-4098,PAYLOAD,2024-05-17 14:07:37,15.08848582,0.0001553,53.217,251.9179,86.3912,273.7258,0.0001685,2.395e-05,0.0,0 STARLINK-4098,1 53153U 22083X   24138.58862384  .00002395  00000-0  16850-3 0  9996,2 53153  53.2170 251.9179 0001553  86.3912 273.7258 15.08848582101559,6917.854,95.437,540.794,538.645,0.0
53153.0,STARLINK-4098,PAYLOAD,2024-05-17 17:18:22,15.08853298,0.0001497,53.2186,251.3197,101.9209,258.1951,8.418e-05,1.052e-05,0.0,0 STARLINK-4098,1 53153U 22083X   24138.72109892  .00001052  00000-0  84180-4 0  9991,2 53153  53.2186 251.3197 0001497 101.9209 258.1951 15.08853298101579,6917.84,95.437,540.74,538.669,0.0
53153.0,STARLINK-4098,PAYLOAD,2024-05-18 13:58:23,15.08860833,6.44e-05,53.2173,247.4547,80.5966,279.5099,0.00020921,3.045e-05,0.0,0 STARLINK-4098,1 53153U 22083X   24139.58221321  .00003045  00000-0  20921-3 0  9994,2 53153  53.2173 247.4547 0000644  80.5966 279.5099 15.08860833101703,6917.817,95.436,540.127,539.236,0.0
53153.0,STARLINK-4098,PAYLOAD,2024-05-18 17:09:09,15.0886529,0.0001102,53.2172,246.8571,102.3966,257.715,0.00019922,2.886e-05,0.0,0 STARLINK-4098,1 53153U 22083X   24139.71468777  .00002886  00000-0  19922-3 0  9998,2 53153  53.2172 246.8571 0001102 102.3966 257.7150 15.08865290101725,6917.803,95.436,540.43,538.906,0.0
53153.0,STARLINK-4098,PAYLOAD,2024-05-19 13:49:12,15.08814434,0.0001582,53.217,242.9951,104.0465,256.0703,-0.0002933,-4.95e-05,0.0,0 STARLINK-4098,1 53153U 22083X   24140.57584368 -.00004950  00000-0 -29330-3 0  9999,2 53153  53.2170 242.9951 0001582 104.0465 256.0703 15.08814434101851,6917.959,95.439,540.918,538.729,0.0
53153.0,STARLINK-4098,PAYLOAD,2024-05-20 12:04:35,15.08855925,0.0001616,53.2171,238.8273,109.7418,250.3749,0.00023866,3.514e-05,0.0,0 STARLINK-4098,1 53153U 22083X   24141.50318547  .00003514  00000-0  23866-3 0  9998,2 53153  53.2171 238.8273 0001616 109.7418 250.3749 15.08855925102624,6917.832,95.437,540.815,538.579,0.0
53153.0,STARLINK-4098,PAYLOAD,2024-05-20 13:39:58,15.08856271,0.0001473,53.2171,238.5301,102.0836,258.0321,0.00025336,3.748e-05,0.0,0 STARLINK-4098,1 53153U 22083X   24141.56942547  .00003748  00000-0  25336-3 0  9990,2 53153  53.2171 238.5301 0001473 102.0836 258.0321 15.08856271102002,6917.831,95.437,540.715,538.677,0.0
53153.0,STARLINK-4098,PAYLOAD,2024-05-21 11:55:23,15.08836806,0.000113,53.2167,234.3766,75.6485,284.4633,9.1044e-05,1.161e-05,0.0,0 STARLINK-4098,1 53153U 22083X   24142.49680266  .00001161  00000-0  91044-4 0  9997,2 53153  53.2167 234.3766 0001130  75.6485 284.4633 15.08836806102776,6917.89,95.438,540.537,538.973,0.0
53153.0,STARLINK-4098,PAYLOAD,2024-05-21 13:30:46,15.08837982,0.0001182,53.217,234.0783,72.7321,287.3801,0.00010606,1.4e-05,0.0,0 STARLINK-4098,1 53153U 22083X   24142.56304229  .00001400  00000-0  10606-3 0  9997,2 53153  53.2170 234.0783 0001182  72.7321 287.3801 15.08837982102157,6917.887,95.438,540.569,538.934,0.0
53153.0,STARLINK-4098,PAYLOAD,2024-05-22 11:46:10,15.08848181,0.0001437,53.2175,229.9178,75.7477,284.3675,-1.5073e-05,-5.28e-06,0.0,0 STARLINK-4098,1 53153U 22083X   24143.49039781 -.00000528  00000-0 -15073-4 0  9994,2 53153  53.2175 229.9178 0001437  75.7477 284.3675 15.08848181102925,6917.855,95.437,540.714,538.726,0.0
53153.0,STARLINK-4098,PAYLOAD,2024-05-23 13:12:21,15.08837507,0.0001934,53.2188,225.1587,57.3071,302.8107,0.00010502,1.384e-05,0.0,0 STARLINK-4098,1 53153U 22083X   24144.55024746  .00001384  00000-0  10502-3 0  9997,2 53153  53.2188 225.1587 0001934  57.3071 302.8107 15.08837507103083,6917.888,95.438,541.091,538.415,0.0
